NORAD_CAT_ID,OBJECT_NAME,OBJECT_TYPE,EPOCH,MEAN_MOTION,ECCENTRICITY,INCLINATION,RA_OF_ASC_NODE,ARG_OF_PERICENTER,MEAN_ANOMALY,BSTAR,MEAN_MOTION_DOT,MEAN_MOTION_DDOT,TLE_LINE0,TLE_LINE1,TLE_LINE2,SEMIMAJOR_AXIS,PERIOD,APOGEE,PERIGEE,DECAYED
53936.0,STARLINK-4791,PAYLOAD,2023-03-27 08:04:31,15.08836365,0.0001318,53.2185,99.8165,88.0274,272.0869,0.0012272,0.00019295,0.0,0 STARLINK-4791,1 53936U 22119BC  23086.33647291  .00019295  00000-0  12272-2 0  9997,2 53936  53.2185  99.8165 0001318  88.0274 272.0869 15.08836365 28821,6917.891,95.438,540.668,538.845,0.0
53936.0,STARLINK-4791,PAYLOAD,2023-03-27 11:15:17,15.08848308,0.0001441,53.2189,99.2261,92.9488,267.1669,0.0022687,0.00036011,0.0,0 STARLINK-4791,1 53936U 22119BC  23086.46895452  .00036011  00000-0  22687-2 0  9991,2 53936  53.2189  99.2261 0001441  92.9488 267.1669 15.08848308 29277,6917.855,95.437,540.717,538.723,0.0
53936.0,STARLINK-4791,PAYLOAD,2023-03-27 17:36:49,15.08893039,0.0001183,53.2182,98.0331,96.0477,264.065,0.0023706,0.00037697,0.0,0 STARLINK-4791,1 53936U 22119BC  23086.73390054  .00037697  00000-0  23706-2 0  9993,2 53936  53.2182  98.0331 0001183  96.0477 264.0650 15.08893039 28884,6917.718,95.434,540.402,538.765,0.0
53936.0,STARLINK-4791,PAYLOAD,2023-03-28 04:44:30,15.08873944,0.0001351,53.2183,95.9519,107.9617,252.1523,0.00073922,0.00011507,0.0,0 STARLINK-4791,1 53936U 22119BC  23087.19757492  .00011507  00000-0  73922-3 0  9995,2 53936  53.2183  95.9519 0001351 107.9617 252.1523 15.08873944 28952,6917.777,95.435,540.576,538.707,0.0
53936.0,STARLINK-4791,PAYLOAD,2023-03-28 12:41:25,15.08867519,8.85e-05,53.2184,94.465,122.7232,237.3846,0.00021633,3.159e-05,0.0,0 STARLINK-4791,1 53936U 22119BC  23087.52876918  .00003159  00000-0  21633-3 0  9993,2 53936  53.2184  94.4650 0000885 122.7232 237.3846 15.08867519 29430,6917.796,95.436,540.274,539.049,0.0
53936.0,STARLINK-4791,PAYLOAD,2023-03-28 17:27:35,15.08855868,0.0001506,53.2179,93.5716,91.2689,268.8475,-6.9327e-05,-1.392e-05,0.0,0 STARLINK-4791,1 53936U 22119BC  23087.72749264 -.00001392  00000-0 -69327-4 0  9990,2 53936  53.2179  93.5716 0001506  91.2689 268.8475 15.08855868 29031,6917.832,95.437,540.739,538.655,0.0
53936.0,STARLINK-4791,PAYLOAD,2023-03-29 12:32:12,15.08858831,0.0001616,53.2183,90.0051,90.8545,269.2632,0.00015711,2.215e-05,0.0,0 STARLINK-4791,1 53936U 22119BC  23088.52236851  .00002215  00000-0  15711-3 0  9992,2 53936  53.2183  90.0051 0001616  90.8545 269.2632 15.08858831 29581,6917.823,95.436,540.806,538.57,0.0
53936.0,STARLINK-4791,PAYLOAD,2023-03-29 17:18:22,15.08837322,7.24e-05,53.2184,89.1147,86.6866,273.4209,-0.00026574,-4.514e-05,0.0,0 STARLINK-4791,1 53936U 22119BC  23088.72109216 -.00004514  00000-0 -26574-3 0  9993,2 53936  53.2184  89.1147 0000724  86.6866 273.4209 15.08837322 29180,6917.889,95.438,540.254,539.253,0.0
53936.0,STARLINK-4791,PAYLOAD,2023-03-30 07:36:50,15.08845444,0.0001432,53.218,86.4368,90.621,269.4946,0.00029393,4.394e-05,0.0,0 STARLINK-4791,1 53936U 22119BC  23089.31725598  .00004394  00000-0  29393-3 0  9992,2 53936  53.2180  86.4368 0001432  90.6210 269.4946 15.08845444 29273,6917.864,95.437,540.719,538.738,0.0
53936.0,STARLINK-4791,PAYLOAD,2023-03-31 10:38:23,15.08862083,0.0001385,53.2187,81.3807,88.8355,271.2796,0.00097265,0.00015235,0.0,0 STARLINK-4791,1 53936U 22119BC  23090.44333291  .00015235  00000-0  97265-3 0  9992,2 53936  53.2187  81.3807 0001385  88.8355 271.2796 15.08862083 29449,6917.813,95.436,540.636,538.72,0.0
53936.0,STARLINK-4791,PAYLOAD,2023-03-31 16:59:57,15.08837192,0.0001894,53.2185,80.1928,76.9612,283.1592,0.00020872,3.035e-05,0.0,0 STARLINK-4791,1 53936U 22119BC  23090.70829998  .00003035  00000-0  20872-3 0  9990,2 53936  53.2185  80.1928 0001894  76.9612 283.1592 15.08837192 29480,6917.889,95.438,541.064,538.444,0.0
53936.0,STARLINK-4791,PAYLOAD,2023-04-01 05:43:02,15.0884287,0.0001467,53.2187,77.8143,78.1206,281.9951,0.00045509,6.963e-05,0.0,0 STARLINK-4791,1 53936U 22119BC  23091.23821900  .00006963  00000-0  45509-3 0  9991,2 53936  53.2187  77.8143 0001467  78.1206 281.9951 15.08842870 29993,6917.872,95.437,540.751,538.722,0.0
53936.0,STARLINK-4791,PAYLOAD,2023-04-02 05:33:49,15.08855019,0.0001456,53.2187,73.3526,82.6028,277.513,0.00067215,0.0001043,0.0,0 STARLINK-4791,1 53936U 22119BC  23092.23181733  .00010430  00000-0  67215-3 0  9997,2 53936  53.2187  73.3526 0001456  82.6028 277.5130 15.08855019 29718,6917.834,95.437,540.707,538.692,0.0
53936.0,STARLINK-4791,PAYLOAD,2023-04-02 08:44:35,15.08858466,0.0001458,53.219,72.758,82.126,277.9898,0.00076557,0.00011923,0.0,0 STARLINK-4791,1 53936U 22119BC  23092.36429609  .00011923  00000-0  76557-3 0  9995,2 53936  53.2190  72.7580 0001458  82.1260 277.9898 15.08858466 30165,6917.824,95.436,540.698,538.68,0.0
53936.0,STARLINK-4791,PAYLOAD,2023-04-03 05:24:36,15.08846204,0.0001229,53.2189,68.8924,88.5562,271.5571,0.00030929,4.639e-05,0.0,0 STARLINK-4791,1 53936U 22119BC  23093.22541913  .00004639  00000-0  30929-3 0  9993,2 53936  53.2189  68.8924 0001229  88.5562 271.5571 15.08846204 29862,6917.861,95.437,540.577,538.876,0.0
53936.0,STARLINK-4791,PAYLOAD,2023-04-04 08:26:08,15.08876918,0.0001114,53.219,63.8374,99.3658,260.746,0.0014819,0.00023399,0.0,0 STARLINK-4791,1 53936U 22119BC  23094.35149094  .00023399  00000-0  14819-2 0  9995,2 53936  53.2190  63.8374 0001114  99.3658 260.7460 15.08876918 30030,6917.768,95.435,540.403,538.862,0.0
53936.0,STARLINK-4791,PAYLOAD,2023-04-04 21:09:14,15.0884511,0.0001611,53.218,61.4607,88.4763,271.6414,7.6255e-05,9.26e-06,0.0,0 STARLINK-4791,1 53936U 22119BC  23094.88141735  .00000926  00000-0  76255-4 0  9992,2 53936  53.2180  61.4607 0001611  88.4763 271.6414 15.08845110 30546,6917.865,95.437,540.844,538.615,0.0
53936.0,STARLINK-4791,PAYLOAD,2023-04-05 05:06:10,15.08829451,0.0001042,53.2186,59.972,78.3837,281.7272,-0.00019073,-3.321e-05,0.0,0 STARLINK-4791,1 53936U 22119BC  23095.21262330 -.00003321  00000-0 -19073-3 0  9993,2 53936  53.2186  59.9720 0001042  78.3837 281.7272 15.08829451 30160,6917.913,95.438,540.498,539.057,0.0
53936.0,STARLINK-4791,PAYLOAD,2023-04-05 09:52:20,15.08833103,0.000106,53.2188,59.0778,117.0723,243.0377,-3.2318e-05,-8.02e-06,0.0,0 STARLINK-4791,1 53936U 22119BC  23095.41134290 -.00000802  00000-0 -32318-4 0  9997,2 53936  53.2188  59.0778 0001060 117.0723 243.0377 15.08833103 30628,6917.901,95.438,540.5,539.033,0.0
53936.0,STARLINK-4791,PAYLOAD,2023-04-06 04:56:57,15.08852405,0.0001105,53.2192,55.5113,94.0924,266.0194,0.00052156,8.025e-05,0.0,0 STARLINK-4791,1 53936U 22119BC  23096.20622070  .00008025  00000-0  52156-3 0  9997,2 53936  53.2192  55.5113 0001105  94.0924 266.0194 15.08852405 30318,6917.842,95.437,540.472,538.943,0.0
53936.0,STARLINK-4791,PAYLOAD,2023-04-06 06:32:20,15.0885551,0.0001095,53.2189,55.2139,92.4992,267.6126,0.00092523,0.00014474,0.0,0 STARLINK-4791,1 53936U 22119BC  23096.27246193  .00014474  00000-0  92523-3 0  9999,2 53936  53.2189  55.2139 0001095  92.4992 267.6126 15.08855510 30754,6917.833,95.437,540.455,538.94,0.0
53936.0,STARLINK-4791,PAYLOAD,2023-04-07 03:12:21,15.08848338,0.0001209,53.2191,51.3487,81.564,278.549,0.00054946,8.47e-05,0.0,0 STARLINK-4791,1 53936U 22119BC  23097.13358577  .00008470  00000-0  54946-3 0  9991,2 53936  53.2191  51.3487 0001209  81.5640 278.5490 15.08848338 30458,6917.855,95.437,540.556,538.884,0.0
53936.0,STARLINK-4791,PAYLOAD,2023-04-08 03:03:08,15.08852114,0.000121,53.2191,46.889,84.5948,275.5182,0.00049776,7.645e-05,0.0,0 STARLINK-4791,1 53936U 22119BC  23098.12718395  .00007645  00000-0  49776-3 0  9997,2 53936  53.2191  46.8890 0001210  84.5948 275.5182 15.08852114 30600,6917.843,95.437,540.545,538.871,0.0
53936.0,STARLINK-4791,PAYLOAD,2023-04-09 01:18:32,15.08849292,0.000118,53.2192,42.7266,85.4676,274.6451,2.7196e-05,1.45e-06,0.0,0 STARLINK-4791,1 53936U 22119BC  23099.05454099  .00000145  00000-0  27196-4 0  9999,2 53936  53.2192  42.7266 0001180  85.4676 274.6451 15.08849292 30744,6917.852,95.437,540.533,538.901,0.0
53936.0,STARLINK-4791,PAYLOAD,2023-04-09 06:04:41,15.08849658,0.0001211,53.2189,41.8336,89.7135,270.3996,0.00018429,2.647e-05,0.0,0 STARLINK-4791,1 53936U 22119BC  23099.25326003  .00002647  00000-0  18429-3 0  9991,2 53936  53.2189  41.8336 0001211  89.7135 270.3996 15.08849658 31205,6917.851,95.437,540.554,538.878,0.0
53936.0,STARLINK-4791,PAYLOAD,2023-04-10 02:44:42,15.08839766,0.0001196,53.2194,37.9695,85.4482,274.6646,1.9066e-05,1.6e-07,0.0,0 STARLINK-4791,1 53936U 22119BC  23100.11438637  .00000016  00000-0  19066-4 0  9993,2 53936  53.2194  37.9695 0001196  85.4482 274.6646 15.08839766 30909,6917.881,95.438,540.573,538.919,0.0
53936.0,STARLINK-4791,PAYLOAD,2023-04-10 20:13:58,15.08823863,0.0001164,53.2193,34.6973,104.2324,255.8797,-0.00013299,-2.403e-05,0.0,0 STARLINK-4791,1 53936U 22119BC  23100.84303863 -.00002403  00000-0 -13299-3 0  9990,2 53936  53.2193  34.6973 0001164 104.2324 255.8797 15.08823863 31440,6917.93,95.439,540.6,538.989,0.0
53936.0,STARLINK-4791,PAYLOAD,2023-04-11 01:00:08,15.08818088,0.0001207,53.2189,33.8053,107.4312,252.6812,-0.00019492,-3.387e-05,0.0,0 STARLINK-4791,1 53936U 22119BC  23101.04176373 -.00003387  00000-0 -19492-3 0  9990,2 53936  53.2189  33.8053 0001207 107.4312 252.6812 15.08818088 31474,6917.947,95.439,540.647,538.977,0.0
53936.0,STARLINK-4791,PAYLOAD,2023-04-12 04:01:40,15.08855882,9.98e-05,53.2177,28.7505,100.7515,259.3589,0.00045645,6.987e-05,0.0,0 STARLINK-4791,1 53936U 22119BC  23102.16783428  .00006987  00000-0  45645-3 0  9995,2 53936  53.2177  28.7505 0000998 100.7515 259.3589 15.08855882 31213,6917.832,95.437,540.387,539.006,0.0
53936.0,STARLINK-4791,PAYLOAD,2023-04-12 11:58:36,15.08852629,0.0001001,53.2177,27.2659,92.7123,267.3984,0.00046092,7.058e-05,0.0,0 STARLINK-4791,1 53936U 22119BC  23102.49903490  .00007058  00000-0  46092-3 0  9991,2 53936  53.2177  27.2659 0001001  92.7123 267.3984 15.08852629 31694,6917.842,95.437,540.399,539.014,0.0
